{
  "type": "FeatureCollection",
  "features": [
    {
      "type": "Feature",
      "properties": {
        "norad_id": 35789,
        "name": "COSMOS 2251 DEB",
        "group": "cosmos-2251-debris",
        "lat": -20.666316089847175,
        "lon": -72.86877062252526,
        "alt_km": 757.4816189892899,
        "timestamp": "2025-12-07T20:38:14.460113+00:00",
        "meta_object_name": "COSMOS 2251 DEB",
        "meta_object_id": "1993-036ASK",
        "meta_epoch": "2025-12-06T14:38:26.509056",
        "meta_mean_motion": 14.35977484,
        "meta_eccentricity": 0.00472063,
        "meta_inclination": 74.0392,
        "meta_ra_of_asc_node": 295.6215,
        "meta_arg_of_pericenter": 36.7286,
        "meta_mean_anomaly": 323.7086,
        "meta_ephemeris_type": 0,
        "meta_classification_type": "U",
        "meta_norad_cat_id": 35789,
        "meta_element_set_no": 999,
        "meta_rev_at_epoch": 61139,
        "meta_bstar": 0.00024671303,
        "meta_mean_motion_dot": 7e-06,
        "meta_mean_motion_ddot": 0,
        "tle_line1": "1 35789U 93036ASK 25340.61002904  .00000700  00000+0  24671-3 0  9998",
        "tle_line2": "2 35789  74.0392 295.6215 0047206  36.7286 323.7086 14.35977484611391"
      },
      "geometry": {
        "type": "Point",
        "coordinates": [
          -72.86877062252526,
          -20.666316089847175
        ]
      }
    },
    {
      "type": "Feature",
      "properties": {
        "norad_id": 35793,
        "name": "COSMOS 2251 DEB",
        "group": "cosmos-2251-debris",
        "lat": 3.709997517231282,
        "lon": 70.83613703396534,
        "alt_km": 637.8172632813366,
        "timestamp": "2025-12-07T20:38:14.460123+00:00",
        "meta_object_name": "COSMOS 2251 DEB",
        "meta_object_id": "1993-036ASP",
        "meta_epoch": "2025-12-07T00:18:39.917664",
        "meta_mean_motion": 14.78452882,
        "meta_eccentricity": 0.00030265,
        "meta_inclination": 74.0395,
        "meta_ra_of_asc_node": 71.4359,
        "meta_arg_of_pericenter": 142.8358,
        "meta_mean_anomaly": 35.2805,
        "meta_ephemeris_type": 0,
        "meta_classification_type": "U",
        "meta_norad_cat_id": 35793,
        "meta_element_set_no": 999,
        "meta_rev_at_epoch": 65712,
        "meta_bstar": 0.0029239002,
        "meta_mean_motion_dot": 0.00021364,
        "meta_mean_motion_ddot": 0,
        "tle_line1": "1 35793U 93036ASP 25341.01296201  .00021364  00000+0  29239-2 0  9996",
        "tle_line2": "2 35793  74.0395  71.4359 0003026 142.8358  35.2805 14.78452882657121"
      },
      "geometry": {
        "type": "Point",
        "coordinates": [
          70.83613703396534,
          3.709997517231282
        ]
      }
    },
    {
      "type": "Feature",
      "properties": {
        "norad_id": 35824,
        "name": "COSMOS 2251 DEB",
        "group": "cosmos-2251-debris",
        "lat": 11.509060586036128,
        "lon": -126.20426095100298,
        "alt_km": 767.3246285326968,
        "timestamp": "2025-12-07T20:38:14.460132+00:00",
        "meta_object_name": "COSMOS 2251 DEB",
        "meta_object_id": "1993-036ASW",
        "meta_epoch": "2025-12-06T23:05:35.922912",
        "meta_mean_motion": 13.88386485,
        "meta_eccentricity": 0.02496418,
        "meta_inclination": 73.8461,
        "meta_ra_of_asc_node": 58.7213,
        "meta_arg_of_pericenter": 145.89,
        "meta_mean_anomaly": 215.8558,
        "meta_ephemeris_type": 0,
        "meta_classification_type": "U",
        "meta_norad_cat_id": 35824,
        "meta_element_set_no": 999,
        "meta_rev_at_epoch": 84147,
        "meta_bstar": 0.0021667349,
        "meta_mean_motion_dot": 3.307e-05,
        "meta_mean_motion_ddot": 0,
        "tle_line1": "1 35824U 93036ASW 25340.96222133  .00003307  00000+0  21667-2 0  9991",
        "tle_line2": "2 35824  73.8461  58.7213 0249641 145.8900 215.8558 13.88386485841474"
      },
      "geometry": {
        "type": "Point",
        "coordinates": [
          -126.20426095100298,
          11.509060586036128
        ]
      }
    },
    {
      "type": "Feature",
      "properties": {
        "norad_id": 35825,
        "name": "COSMOS 2251 DEB",
        "group": "cosmos-2251-debris",
        "lat": 52.087077358797735,
        "lon": -50.78873010313294,
        "alt_km": 1125.1471464555998,
        "timestamp": "2025-12-07T20:38:14.460142+00:00",
        "meta_object_name": "COSMOS 2251 DEB",
        "meta_object_id": "1993-036ASX",
        "meta_epoch": "2025-12-06T17:43:31.257408",
        "meta_mean_motion": 13.70908059,
        "meta_eccentricity": 0.03529553,
        "meta_inclination": 74.1125,
        "meta_ra_of_asc_node": 152.5025,
        "meta_arg_of_pericenter": 249.6557,
        "meta_mean_anomaly": 106.6316,
        "meta_ephemeris_type": 0,
        "meta_classification_type": "U",
        "meta_norad_cat_id": 35825,
        "meta_element_set_no": 999,
        "meta_rev_at_epoch": 82426,
        "meta_bstar": 0.0026115912,
        "meta_mean_motion_dot": 3.599e-05,
        "meta_mean_motion_ddot": 0,
        "tle_line1": "1 35825U 93036ASX 25340.73855622  .00003599  00000+0  26116-2 0  9999",
        "tle_line2": "2 35825  74.1125 152.5025 0352955 249.6557 106.6316 13.70908059824269"
      },
      "geometry": {
        "type": "Point",
        "coordinates": [
          -50.78873010313294,
          52.087077358797735
        ]
      }
    },
    {
      "type": "Feature",
      "properties": {
        "norad_id": 35829,
        "name": "COSMOS 2251 DEB",
        "group": "cosmos-2251-debris",
        "lat": -33.90620764048057,
        "lon": 97.2683064169466,
        "alt_km": 652.0906839349218,
        "timestamp": "2025-12-07T20:38:14.460152+00:00",
        "meta_object_name": "COSMOS 2251 DEB",
        "meta_object_id": "1993-036ATB",
        "meta_epoch": "2025-12-06T15:31:06.082752",
        "meta_mean_motion": 14.76019114,
        "meta_eccentricity": 0.00069566,
        "meta_inclination": 74.0253,
        "meta_ra_of_asc_node": 110.7447,
        "meta_arg_of_pericenter": 170.1398,
        "meta_mean_anomaly": 189.9914,
        "meta_ephemeris_type": 0,
        "meta_classification_type": "U",
        "meta_norad_cat_id": 35829,
        "meta_element_set_no": 999,
        "meta_rev_at_epoch": 87685,
        "meta_bstar": 0.003503633,
        "meta_mean_motion_dot": 0.00024203,
        "meta_mean_motion_ddot": 0,
        "tle_line1": "1 35829U 93036ATB 25340.64659818  .00024203  00000+0  35036-2 0  9998",
        "tle_line2": "2 35829  74.0253 110.7447 0006956 170.1398 189.9914 14.76019114876858"
      },
      "geometry": {
        "type": "Point",
        "coordinates": [
          97.2683064169466,
          -33.90620764048057
        ]
      }
    },
    {
      "type": "Feature",
      "properties": {
        "norad_id": 35830,
        "name": "COSMOS 2251 DEB",
        "group": "cosmos-2251-debris",
        "lat": 69.60386759124582,
        "lon": 44.17486780773952,
        "alt_km": 873.8463341683992,
        "timestamp": "2025-12-07T20:38:14.460162+00:00",
        "meta_object_name": "COSMOS 2251 DEB",
        "meta_object_id": "1993-036ATC",
        "meta_epoch": "2025-12-06T12:06:38.215008",
        "meta_mean_motion": 14.23927917,
        "meta_eccentricity": 0.01224789,
        "meta_inclination": 73.8624,
        "meta_ra_of_asc_node": 277.7805,
        "meta_arg_of_pericenter": 247.2482,
        "meta_mean_anomaly": 111.5683,
        "meta_ephemeris_type": 0,
        "meta_classification_type": "U",
        "meta_norad_cat_id": 35830,
        "meta_element_set_no": 999,
        "meta_rev_at_epoch": 61175,
        "meta_bstar": 0.0019622096,
        "meta_mean_motion_dot": 4.837e-05,
        "meta_mean_motion_ddot": 0,
        "tle_line1": "1 35830U 93036ATC 25340.50460897  .00004837  00000+0  19622-2 0  9996",
        "tle_line2": "2 35830  73.8624 277.7805 0122478 247.2482 111.5683 14.23927917611750"
      },
      "geometry": {
        "type": "Point",
        "coordinates": [
          44.17486780773952,
          69.60386759124582
        ]
      }
    },
    {
      "type": "Feature",
      "properties": {
        "norad_id": 35834,
        "name": "COSMOS 2251 DEB",
        "group": "cosmos-2251-debris",
        "lat": 42.444059929269834,
        "lon": 117.94130711630706,
        "alt_km": 771.4599056323505,
        "timestamp": "2025-12-07T20:38:14.460172+00:00",
        "meta_object_name": "COSMOS 2251 DEB",
        "meta_object_id": "1993-036ATG",
        "meta_epoch": "2025-12-06T22:03:30.654720",
        "meta_mean_motion": 14.12970743,
        "meta_eccentricity": 0.01091532,
        "meta_inclination": 73.9306,
        "meta_ra_of_asc_node": 314.899,
        "meta_arg_of_pericenter": 116.4535,
        "meta_mean_anomaly": 274.7981,
        "meta_ephemeris_type": 0,
        "meta_classification_type": "U",
        "meta_norad_cat_id": 35834,
        "meta_element_set_no": 999,
        "meta_rev_at_epoch": 66181,
        "meta_bstar": 0.00031514021,
        "meta_mean_motion_dot": 5.97e-06,
        "meta_mean_motion_ddot": 0,
        "tle_line1": "1 35834U 93036ATG 25340.91910480  .00000597  00000+0  31514-3 0  9997",
        "tle_line2": "2 35834  73.9306 314.8990 0109153 116.4535 274.7981 14.12970743661819"
      },
      "geometry": {
        "type": "Point",
        "coordinates": [
          117.94130711630706,
          42.444059929269834
        ]
      }
    }
  ]
}